STARLINK-2629
1 28686C 21044BA  21325.13349688 -.00009327  00000-0 -62504-3 0  3254
2 28686  53.0538 282.6153 0001869  58.5182  57.2982 15.06399393    10
